{
  "norad_id": 65541,
  "name": "STARLINK-35087",
  "history": [
    {
      "epoch": "2026-04-14T11:01:19.676064Z",
      "apogee_km": 550.6564552030268,
      "perigee_km": 548.3534299156418,
      "latitude_deg": 1.558571867403305e-05,
      "longitude_deg": 167.09923847874552,
      "height_km": 553.7099665181214,
      "semi_major_axis_km": 6927.641942559334,
      "eccentricity": 0.00016622,
      "inclination_deg": 97.6043,
      "raan_deg": 175.0666,
      "arg_perigee_deg": 171.896,
      "mean_anomaly_deg": 188.2294,
      "mean_motion_rev_day": 15.05652025
    },
    {
      "epoch": "2026-04-15T17:19:37.373376Z",
      "apogee_km": 550.7349456939955,
      "perigee_km": 548.2396154281387,
      "latitude_deg": 2.703758167583059e-05,
      "longitude_deg": 72.52422174866547,
      "height_km": 553.7832672423896,
      "semi_major_axis_km": 6927.624280561067,
      "eccentricity": 0.0001801,
      "inclination_deg": 97.6002,
      "raan_deg": 176.3099,
      "arg_perigee_deg": 170.6027,
      "mean_anomaly_deg": 189.5234,
      "mean_motion_rev_day": 15.05657783
    },
    {
      "epoch": "2026-04-16T10:52:19.526592Z",
      "apogee_km": 550.820543518973,
      "perigee_km": 548.1866545632174,
      "latitude_deg": 5.188606079705788e-06,
      "longitude_deg": 169.35023836641295,
      "height_km": 553.8543859584829,
      "semi_major_axis_km": 6927.640599041095,
      "eccentricity": 0.0001901,
      "inclination_deg": 97.6052,
      "raan_deg": 177.0321,
      "arg_perigee_deg": 167.5622,
      "mean_anomaly_deg": 192.5652,
      "mean_motion_rev_day": 15.05652463
    },
    {
      "epoch": "2026-04-17T21:57:43.540128Z",
      "apogee_km": 550.9214601355243,
      "perigee_km": 548.0757259866059,
      "latitude_deg": 6.214842163407363e-05,
      "longitude_deg": 3.0008812500861133,
      "height_km": 553.9301189237601,
      "semi_major_axis_km": 6927.635593061064,
      "eccentricity": 0.00020539,
      "inclination_deg": 97.6039,
      "raan_deg": 178.4739,
      "arg_perigee_deg": 163.8874,
      "mean_anomaly_deg": 196.2419,
      "mean_motion_rev_day": 15.05654095
    },
    {
      "epoch": "2026-04-18T10:43:19.457472Z",
      "apogee_km": 550.950873339887,
      "perigee_km": 548.0342027517781,
      "latitude_deg": 1.6451454833659667e-05,
      "longitude_deg": 171.60119817553186,
      "height_km": 553.9668943902105,
      "semi_major_axis_km": 6927.629538045832,
      "eccentricity": 0.00021051,
      "inclination_deg": 97.6034,
      "raan_deg": 178.9979,
      "arg_perigee_deg": 165.1648,
      "mean_anomaly_deg": 194.9641,
      "mean_motion_rev_day": 15.05656069
    },
    {
      "epoch": "2026-04-19T10:38:49.494624Z",
      "apogee_km": 551.0003352666399,
      "perigee_km": 548.0175680256998,
      "latitude_deg": 2.6404947921099233e-05,
      "longitude_deg": 172.72607623262326,
      "height_km": 554.0128524814263,
      "semi_major_axis_km": 6927.64595164617,
      "eccentricity": 0.00021528,
      "inclination_deg": 97.6015,
      "raan_deg": 179.9805,
      "arg_perigee_deg": 164.8065,
      "mean_anomaly_deg": 195.3227,
      "mean_motion_rev_day": 15.05650718
    },
    {
      "epoch": "2026-04-20T10:34:19.547328Z",
      "apogee_km": 551.0461597131798,
      "perigee_km": 547.948952855756,
      "latitude_deg": 5.7883030413641916e-05,
      "longitude_deg": 173.8503853488058,
      "height_km": 554.013439356602,
      "semi_major_axis_km": 6927.634556284468,
      "eccentricity": 0.00022354,
      "inclination_deg": 97.5964,
      "raan_deg": 180.9626,
      "arg_perigee_deg": 159.5942,
      "mean_anomaly_deg": 200.5375,
      "mean_motion_rev_day": 15.05654433
    },
    {
      "epoch": "2026-04-21T15:16:55.405632Z",
      "apogee_km": 551.0618720149823,
      "perigee_km": 547.9347374384279,
      "latitude_deg": -5.464038671382079e-06,
      "longitude_deg": 103.19970505911324,
      "height_km": 554.073504664607,
      "semi_major_axis_km": 6927.635304726705,
      "eccentricity": 0.0002257,
      "inclination_deg": 97.5929,
      "raan_deg": 182.1404,
      "arg_perigee_deg": 165.0027,
      "mean_anomaly_deg": 195.1267,
      "mean_motion_rev_day": 15.05654189
    },
    {
      "epoch": "2026-04-22T04:02:31.528608Z",
      "apogee_km": 551.1380335893309,
      "perigee_km": 547.867771896842,
      "latitude_deg": 1.6616942139162792e-05,
      "longitude_deg": -88.20194761010244,
      "height_km": 554.1244909225325,
      "semi_major_axis_km": 6927.639902743086,
      "eccentricity": 0.00023603,
      "inclination_deg": 97.5908,
      "raan_deg": 182.6633,
      "arg_perigee_deg": 162.199,
      "mean_anomaly_deg": 197.932,
      "mean_motion_rev_day": 15.0565269
    },
    {
      "epoch": "2026-04-23T03:58:01.579584Z",
      "apogee_km": 551.0941443231259,
      "perigee_km": 547.9118636109042,
      "latitude_deg": -5.1441520394892954e-05,
      "longitude_deg": -87.07871872396095,
      "height_km": 554.1139179325642,
      "semi_major_axis_km": 6927.640003967015,
      "eccentricity": 0.00022968,
      "inclination_deg": 97.5885,
      "raan_deg": 183.6443,
      "arg_perigee_deg": 166.2924,
      "mean_anomaly_deg": 193.8365,
      "mean_motion_rev_day": 15.05652657
    },
    {
      "epoch": "2026-04-24T16:39:07.604064Z",
      "apogee_km": 551.3413964719939,
      "perigee_km": 547.6628201054928,
      "latitude_deg": 6.930523700008464e-06,
      "longitude_deg": 82.64016974008666,
      "height_km": 554.3423877945705,
      "semi_major_axis_km": 6927.639108288743,
      "eccentricity": 0.0002655,
      "inclination_deg": 97.5779,
      "raan_deg": 185.1449,
      "arg_perigee_deg": 164.8154,
      "mean_anomaly_deg": 195.3153,
      "mean_motion_rev_day": 15.05652949
    }
  ]
}